#aV2011  6 11  0  0   .00000000      96 DD+AD WGS84 FIT  NGA
## 1639 518400.00000000   900.00000000 55723  .0000000000000
+   32     1  2  3  4  5  6  7  8  9 10 11 12 13 14 15 16 17
+         18 19 20 21 22 23 24 25 26 27 28 29 30 31 32  0  0
+          0  0  0  0  0  0  0  0  0  0  0  0  0  0  0  0  0
+          0  0  0  0  0  0  0  0  0  0  0  0  0  0  0  0  0
+          0  0  0  0  0  0  0  0  0  0  0  0  0  0  0  0  0
++         0  0  0  0  0  0  0  0  0  0  0  0  0  0  0  0  0
++         0  0  0  0  0  0  0  0  0  0  0  0  0  0  0  0  0
++         0  0  0  0  0  0  0  0  0  0  0  0  0  0  0  0  0
++         0  0  0  0  0  0  0  0  0  0  0  0  0  0  0  0  0
++         0  0  0  0  0  0  0  0  0  0  0  0  0  0  0  0  0
%c cc cc ccc ccc cccc cccc cccc cccc ccccc ccccc ccccc ccccc
%c cc cc ccc ccc cccc cccc cccc cccc ccccc ccccc ccccc ccccc
%f  0.0000000  0.000000000  0.00000000000  0.000000000000000
%f  0.0000000  0.000000000  0.00000000000  0.000000000000000
%i    0    0    0    0      0      0      0      0         0
%i    0    0    0    0      0      0      0      0         0
/*      NGA, ST. LOUIS,MO.                                  
/*   EPHEMERIS COMPUTED FROM  3 DAYS OF DATA                
/* CCCCCCCCCCCCCCCCCCCCCCCCCCCCCCCCCCCCCCCCCCCCCCCCCCCCCCCCC
/* CCCCCCCCCCCCCCCCCCCCCCCCCCCCCCCCCCCCCCCCCCCCCCCCCCCCCCCCC
*  2011  6 11 12  0   .00000000                                                 
P  1  19497.931304 -14184.943739 -11454.369054     90.763320                    
V  1  14151.252256  -1591.704052  26950.775000       .015865                    
P  2  15865.369159   1383.289212 -21152.496231    341.159619                    
V  2  -7868.194048  25972.835388  -4679.609309       .019355                    
P  3 -22118.672337  -7131.952549  12717.082163    727.190082                    
V  3 -10490.426194 -13427.348988 -24636.001856       .051660                    
P  4   9840.775168  15199.580169 -19529.936279    141.090663                    
V  4  -9674.112911  22610.916938  13205.837518       .107557                    
P  5  25993.256524   -849.537804  -5679.548941   -173.207727                    
V  5  -6522.811285   4120.671215 -30442.962084      -.056610                    
P  6 -21729.423717 -11443.597662  10563.491002    229.130440                    
V  6  -6987.432174 -11523.245882 -27025.493347      -.834839                    
P  7  -4943.008937  25314.281285   5838.156308     13.982989                    
V  7  -4864.395804   6158.324219 -31038.488885       .012593                    
P  8    978.440759  21590.666763  15066.389617      8.132227                    
V  8  -9353.076847  16900.748149 -24186.014564       .001149                    
P  9  14285.170966 -18875.299602  11490.854333     85.704621                    
V  9  -2988.258112  15255.554178  27455.036714       .024280                    
P 10  16696.418706  10443.852030 -18204.747363     -3.362121                    
V 10 -22037.868046   5150.843156 -17093.340486      -.012327                    
P 11 -13372.667159  17221.430147  14616.915820   -158.594155                    
V 11  -2240.067673 -19761.299813  21124.547829      -.032890                    
P 12  20563.853207 -11675.268863 -11896.201368      1.723859                    
V 12  15312.102089   -475.314926  27063.931708       .026001                    
P 13    227.945514  19989.753641 -17597.107053    265.999563                    
V 13 -13878.920862 -17134.586445 -19870.941134      -.016618                    
P 14 -14710.124432 -22078.358606   2570.595669    155.381814                    
V 14   3425.022737   1219.675757  31916.155585       .022136                    
P 15  14847.956052  -6123.277149  21180.632609   -122.271076                    
V 15  17498.820095  20436.452576  -6197.111499       .023225                    
P 16 -26029.188586   -160.182775  -6033.221981   -178.276529                    
V 16   7224.823671  -3099.432480 -30684.871618      -.025603                    
P 17  15345.301604  21707.642980   2448.906023    183.886362                    
V 17  -3853.503879   -639.775018  31414.307337      -.005129                    
P 18    -66.700057 -16090.594239  21424.042783    141.649797                    
V 18  26307.334271  -3984.206156  -3333.231602       .019258                    
P 19 -16799.825435   1447.313346  20597.307162   -150.207749                    
V 19 -14660.857540 -21591.416474 -10086.734401      -.040859                    
P 20 -17598.119677  14458.857844 -13756.862689     49.832283                    
V 20 -17520.270176   1097.784788  23875.777279       .002479                    
P 21   2359.538696 -24895.492120   8394.616723   -150.452157                    
V 21   7136.040378  -8397.174813 -28937.631964      -.026043                    
P 22 -13237.113741 -12522.202502  19533.096992    147.604774                    
V 22  23930.841266  -5479.465216  12707.659355      -.006703                    
P 23  -9589.925836  11953.441144 -21662.987441    299.979658                    
V 23 -18059.355997 -20790.894310  -3821.468197      -.027737                    
P 24 -14994.443026  19959.874116   8685.506929    397.666607                    
V 24   1290.246097 -11432.348492  28968.126707       .030977                    
P 25   8652.918717 -15645.871749 -19653.823291      3.371437                    
V 25  24650.700794  -3757.407098  13884.810237       .018496                    
P 26  19095.452593   7724.930958  16395.536091    -57.208377                    
V 26  11850.884261  18277.638743 -21251.669413      -.114748                    
P 27  15966.603684 -13010.775767  17229.585123    273.931355                    
V 27  -4637.110221  20240.224090  20687.132390       .037445                    
P 28   9196.744649  13432.711371  21554.184954     44.027832                    
V 28 -25740.014633   4160.309312   8350.204335       .027157                    
P 29   1253.571966 -19060.973682 -18397.498585    214.404143                    
V 29  15781.932218  17475.953687 -16912.616906       .028292                    
P 30 -21633.897547  -5583.706527 -14794.403474     10.046826                    
V 30  17153.084896  -5976.265207 -23464.941525       .048442                    
P 31 -10260.312035 -12589.740302 -20770.924870     93.911774                    
V 31   9949.912359 -24929.805619  10304.289513       .057405                    
P 32 -23919.260231   7762.316996  -7577.357149   -271.181814                    
V 32 -10382.172389  -2189.460050  29864.793474      -.071443                    
EOF
